start=new Date('2022-11-05T00:00:00.000Z').valueOf();
sats=[{"TLE_LINE1":"1 53232U 22084AV  22308.84845023 -.00001866  00000-0 -14068-3 0  9995","OBJECT_ID":"2022-084AV","RCS_SIZE":"LARGE","FILE":"3645105","INCLINATION":"97.6590","GP_ID":"216938544","RA_OF_ASC_NODE":"8.1360","CENTER_NAME":"EARTH","COUNTRY_CODE":"US","MEAN_ELEMENT_THEORY":"SGP4","EPOCH":"2022-11-04T20:21:46.099872","SEMIMAJOR_AXIS":"6941.099","MEAN_MOTION_DDOT":"0.0000000000000","REV_AT_EPOCH":"1615","MEAN_MOTION":"15.01275684","NORAD_CAT_ID":"53232","ARG_OF_PERICENTER":"43.0230","MEAN_ANOMALY":"317.1163","DECAY_DATE":null,"OBJECT_TYPE":"PAYLOAD","MEAN_MOTION_DOT":"-0.00001866","TLE_LINE2":"2 53232  97.6590   8.1360 0002164  43.0230 317.1163 15.01275684 16150","ELEMENT_SET_NO":"999","TIME_SYSTEM":"UTC","CLASSIFICATION_TYPE":"U","ECCENTRICITY":"0.00021640","REF_FRAME":"TEME","PERIOD":"95.918","APOAPSIS":"564.466","SITE":"AFWTR","BSTAR":"-0.00014068000000","OBJECT_NAME":"STARLINK-4371","LAUNCH_DATE":"2022-07-22","PERIAPSIS":"561.461","EPHEMERIS_TYPE":"0"},{"MEAN_MOTION_DDOT":"0.0000000000000","REV_AT_EPOCH":"1611","SEMIMAJOR_AXIS":"6941.101","COUNTRY_CODE":"US","MEAN_ELEMENT_THEORY":"SGP4","EPOCH":"2022-11-04T13:52:30.987552","CENTER_NAME":"EARTH","RA_OF_ASC_NODE":"7.8573","GP_ID":"216938719","INCLINATION":"97.6575","RCS_SIZE":"LARGE","FILE":"3645105","OBJECT_ID":"2022-084AW","TLE_LINE1":"1 53233U 22084AW  22308.57813643  .00004472  00000-0  35237-3 0  9994","EPHEMERIS_TYPE":"0","PERIAPSIS":"561.326","LAUNCH_DATE":"2022-07-22","OBJECT_NAME":"STARLINK-4372","BSTAR":"0.00035237000000","SITE":"AFWTR","APOAPSIS":"564.607","REF_FRAME":"TEME","ECCENTRICITY":"0.00023630","PERIOD":"95.918","ELEMENT_SET_NO":"999","TLE_LINE2":"2 53233  97.6575   7.8573 0002363  52.0074 308.1364 15.01274757 16112","TIME_SYSTEM":"UTC","CLASSIFICATION_TYPE":"U","MEAN_MOTION_DOT":"0.00004472","OBJECT_TYPE":"PAYLOAD","DECAY_DATE":null,"MEAN_ANOMALY":"308.1364","ARG_OF_PERICENTER":"52.0074","MEAN_MOTION":"15.01274757","NORAD_CAT_ID":"53233"},{"TLE_LINE1":"1 53234U 22084AX  22308.57651973  .00002816  00000-0  22360-3 0  9994","OBJECT_ID":"2022-084AX","RCS_SIZE":"LARGE","FILE":"3645105","INCLINATION":"97.6597","GP_ID":"216939757","CENTER_NAME":"EARTH","RA_OF_ASC_NODE":"7.8700","EPOCH":"2022-11-04T13:50:11.304672","COUNTRY_CODE":"US","MEAN_ELEMENT_THEORY":"SGP4","SEMIMAJOR_AXIS":"6941.088","REV_AT_EPOCH":"1712","MEAN_MOTION_DDOT":"0.0000000000000","MEAN_MOTION":"15.01279146","NORAD_CAT_ID":"53234","ARG_OF_PERICENTER":"63.9909","MEAN_ANOMALY":"296.1509","DECAY_DATE":null,"OBJECT_TYPE":"PAYLOAD","MEAN_MOTION_DOT":"0.00002816","CLASSIFICATION_TYPE":"U","TIME_SYSTEM":"UTC","TLE_LINE2":"2 53234  97.6597   7.8700 0001884  63.9909 296.1509 15.01279146 17120","ELEMENT_SET_NO":"999","PERIOD":"95.918","ECCENTRICITY":"0.00018840","REF_FRAME":"TEME","BSTAR":"0.00022360000000","SITE":"AFWTR","APOAPSIS":"564.261","OBJECT_NAME":"STARLINK-4368","LAUNCH_DATE":"2022-07-22","PERIAPSIS":"561.645","EPHEMERIS_TYPE":"0"},{"DECAY_DATE":null,"MEAN_ANOMALY":"323.4903","ARG_OF_PERICENTER":"36.6221","MEAN_MOTION":"15.08834671","NORAD_CAT_ID":"53242","TLE_LINE2":"2 53242  53.2169 279.7669 0001928  36.6221 323.4903 15.08834671 17005","ELEMENT_SET_NO":"999","CLASSIFICATION_TYPE":"U","TIME_SYSTEM":"UTC","MEAN_MOTION_DOT":"-0.00002424","OBJECT_TYPE":"PAYLOAD","LAUNCH_DATE":"2022-07-24","OBJECT_NAME":"STARLINK-4056","SITE":"AFETR","BSTAR":"-0.00013426000000","APOAPSIS":"541.095","ECCENTRICITY":"0.00019280","REF_FRAME":"TEME","PERIOD":"95.438","EPHEMERIS_TYPE":"0","PERIAPSIS":"538.428","OBJECT_ID":"2022-086A","TLE_LINE1":"1 53242U 22086A   22308.83382387 -.00002424  00000-0 -13426-3 0  9994","GP_ID":"216938963","INCLINATION":"53.2169","FILE":"3645105","RCS_SIZE":"LARGE","COUNTRY_CODE":"US","MEAN_ELEMENT_THEORY":"SGP4","EPOCH":"2022-11-04T20:00:42.382368","RA_OF_ASC_NODE":"279.7669","CENTER_NAME":"EARTH","MEAN_MOTION_DDOT":"0.0000000000000","REV_AT_EPOCH":"1700","SEMIMAJOR_AXIS":"6917.897"},{"SEMIMAJOR_AXIS":"6917.844","MEAN_MOTION_DDOT":"0.0000000000000","REV_AT_EPOCH":"1637","RA_OF_ASC_NODE":"286.5280","CENTER_NAME":"EARTH","MEAN_ELEMENT_THEORY":"SGP4","COUNTRY_CODE":"US","EPOCH":"2022-11-04T10:28:59.637504","RCS_SIZE":"LARGE","FILE":"3645009","INCLINATION":"53.2142","GP_ID":"216911883","TLE_LINE1":"1 53243U 22086B   22308.43680136  .00002944  00000-0  20291-3 0  9997","OBJECT_ID":"2022-086B","PERIAPSIS":"538.163","EPHEMERIS_TYPE":"0","REF_FRAME":"TEME","ECCENTRICITY":"0.00022340","PERIOD":"95.437","SITE":"AFETR","BSTAR":"0.00020291000000","APOAPSIS":"541.254","OBJECT_NAME":"STARLINK-4047","LAUNCH_DATE":"2022-07-24","OBJECT_TYPE":"PAYLOAD","MEAN_MOTION_DOT":"0.00002944","TLE_LINE2":"2 53243  53.2142 286.5280 0002234  37.0299 323.0847 15.08851963 16378","ELEMENT_SET_NO":"999","CLASSIFICATION_TYPE":"U","TIME_SYSTEM":"UTC","MEAN_MOTION":"15.08851963","NORAD_CAT_ID":"53243","ARG_OF_PERICENTER":"37.0299","MEAN_ANOMALY":"323.0847","DECAY_DATE":null},{"GP_ID":"216939477","RCS_SIZE":"LARGE","FILE":"3645105","INCLINATION":"53.2152","OBJECT_ID":"2022-086C","TLE_LINE1":"1 53244U 22086C   22308.75696736  .00001161  00000-0  91070-4 0  9990","REV_AT_EPOCH":"1692","MEAN_MOTION_DDOT":"0.0000000000000","SEMIMAJOR_AXIS":"6917.873","RA_OF_ASC_NODE":"285.0978","CENTER_NAME":"EARTH","EPOCH":"2022-11-04T18:10:01.979904","COUNTRY_CODE":"US","MEAN_ELEMENT_THEORY":"SGP4","MEAN_MOTION_DOT":"0.00001161","CLASSIFICATION_TYPE":"U","TIME_SYSTEM":"UTC","TLE_LINE2":"2 53244  53.2152 285.0978 0002486  31.0409 329.0730 15.08842536 16928","ELEMENT_SET_NO":"999","OBJECT_TYPE":"PAYLOAD","MEAN_ANOMALY":"329.0730","DECAY_DATE":null,"NORAD_CAT_ID":"53244","MEAN_MOTION":"15.08842536","ARG_OF_PERICENTER":"31.0409","EPHEMERIS_TYPE":"0","PERIAPSIS":"538.018","OBJECT_NAME":"STARLINK-4125","LAUNCH_DATE":"2022-07-24","PERIOD":"95.437","REF_FRAME":"TEME","ECCENTRICITY":"0.00024860","SITE":"AFETR","APOAPSIS":"541.457","BSTAR":"0.00009107000000"},{"OBJECT_TYPE":"PAYLOAD","MEAN_MOTION_DOT":"0.00000667","TIME_SYSTEM":"UTC","CLASSIFICATION_TYPE":"U","ELEMENT_SET_NO":"999","TLE_LINE2":"2 53245  53.2161 286.5471 0002178  41.2672 318.8484 15.08851203 16378","MEAN_MOTION":"15.08851203","NORAD_CAT_ID":"53245","ARG_OF_PERICENTER":"41.2672","MEAN_ANOMALY":"318.8484","DECAY_DATE":null,"PERIAPSIS":"538.204","EPHEMERIS_TYPE":"0","PERIOD":"95.437","ECCENTRICITY":"0.00021780","REF_FRAME":"TEME","SITE":"AFETR","APOAPSIS":"541.218","BSTAR":"0.00006000300000","OBJECT_NAME":"STARLINK-4124","LAUNCH_DATE":"2022-07-24","RCS_SIZE":"LARGE","FILE":"3645001","INCLINATION":"53.2161","GP_ID":"216911900","TLE_LINE1":"1 53245U 22086D   22308.43312220  .00000667  00000-0  60003-4 0  9991","OBJECT_ID":"2022-086D","SEMIMAJOR_AXIS":"6917.846","REV_AT_EPOCH":"1637","MEAN_MOTION_DDOT":"0.0000000000000","CENTER_NAME":"EARTH","RA_OF_ASC_NODE":"286.5471","EPOCH":"2022-11-04T10:23:41.758080","MEAN_ELEMENT_THEORY":"SGP4","COUNTRY_CODE":"US"},{"CENTER_NAME":"EARTH","RA_OF_ASC_NODE":"286.8655","EPOCH":"2022-11-04T08:43:00.160320","COUNTRY_CODE":"US","MEAN_ELEMENT_THEORY":"SGP4","REV_AT_EPOCH":"1575","MEAN_MOTION_DDOT":"0.0000000000000","SEMIMAJOR_AXIS":"6917.821","OBJECT_ID":"2022-086E","TLE_LINE1":"1 53246U 22086E   22308.36319630  .00005018  00000-0  33299-3 0  9997","GP_ID":"216906881","RCS_SIZE":"LARGE","FILE":"3644787","INCLINATION":"53.2162","OBJECT_NAME":"STARLINK-4131","LAUNCH_DATE":"2022-07-24","PERIOD":"95.436","ECCENTRICITY":"0.00025690","REF_FRAME":"TEME","SITE":"AFETR","APOAPSIS":"541.463","BSTAR":"0.00033299000000","EPHEMERIS_TYPE":"0","PERIAPSIS":"537.909","MEAN_ANOMALY":"327.5214","DECAY_DATE":null,"MEAN_MOTION":"15.08859343","NORAD_CAT_ID":"53246","ARG_OF_PERICENTER":"32.5937","MEAN_MOTION_DOT":"0.00005018","CLASSIFICATION_TYPE":"U","TIME_SYSTEM":"UTC","TLE_LINE2":"2 53246  53.2162 286.8655 0002569  32.5937 327.5214 15.08859343 15750","ELEMENT_SET_NO":"999","OBJECT_TYPE":"PAYLOAD"},{"MEAN_ANOMALY":"315.4071","DECAY_DATE":null,"MEAN_MOTION":"15.08845506","NORAD_CAT_ID":"53247","ARG_OF_PERICENTER":"44.7076","MEAN_MOTION_DOT":"0.00001234","ELEMENT_SET_NO":"999","TLE_LINE2":"2 53247  53.2183 279.4854 0001931  44.7076 315.4071 15.08845506 17018","CLASSIFICATION_TYPE":"U","TIME_SYSTEM":"UTC","OBJECT_TYPE":"PAYLOAD","OBJECT_NAME":"STARLINK-4061","LAUNCH_DATE":"2022-07-24","ECCENTRICITY":"0.00019310","REF_FRAME":"TEME","PERIOD":"95.437","SITE":"AFETR","APOAPSIS":"541.064","BSTAR":"0.00009560000000","EPHEMERIS_TYPE":"0","PERIAPSIS":"538.393","OBJECT_ID":"2022-086F","TLE_LINE1":"1 53247U 22086F   22308.89639010  .00001234  00000-0  95600-4 0  9994","GP_ID":"216938720","RCS_SIZE":"LARGE","FILE":"3645105","INCLINATION":"53.2183","CENTER_NAME":"EARTH","RA_OF_ASC_NODE":"279.4854","COUNTRY_CODE":"US","MEAN_ELEMENT_THEORY":"SGP4","EPOCH":"2022-11-04T21:30:48.104640","MEAN_MOTION_DDOT":"0.0000000000000","REV_AT_EPOCH":"1701","SEMIMAJOR_AXIS":"6917.864"},{"REV_AT_EPOCH":"1697","MEAN_MOTION_DDOT":"0.0000000000000","SEMIMAJOR_AXIS":"6917.855","EPOCH":"2022-11-04T15:03:56.738592","MEAN_ELEMENT_THEORY":"SGP4","COUNTRY_CODE":"US","RA_OF_ASC_NODE":"280.6871","CENTER_NAME":"EARTH","GP_ID":"216939758","INCLINATION":"53.2159","RCS_SIZE":"LARGE","FILE":"3645105","OBJECT_ID":"2022-086G","TLE_LINE1":"1 53248U 22086G   22308.62774003  .00001922  00000-0  13881-3 0  9992","EPHEMERIS_TYPE":"0","PERIAPSIS":"538.340","LAUNCH_DATE":"2022-07-24","OBJECT_NAME":"STARLINK-4135","SITE":"AFETR","BSTAR":"0.00013881000000","APOAPSIS":"541.100","PERIOD":"95.437","ECCENTRICITY":"0.00019950","REF_FRAME":"TEME","TIME_SYSTEM":"UTC","CLASSIFICATION_TYPE":"U","TLE_LINE2":"2 53248  53.2159 280.6871 0001995  46.6971 313.4187 15.08848202 16976","ELEMENT_SET_NO":"999","MEAN_MOTION_DOT":"0.00001922","OBJECT_TYPE":"PAYLOAD","DECAY_DATE":null,"MEAN_ANOMALY":"313.4187","ARG_OF_PERICENTER":"46.6971","MEAN_MOTION":"15.08848202","NORAD_CAT_ID":"53248"}];
